GPS BIIA-10 (PRN 32)    
1 20959U 90103A   09142.65992727 -.00000044  00000-0  10000-3 0  2593
2 20959  55.2231 284.0308 0135998 293.0317  65.5099  2.00575780135399
GPS BIIA-11 (PRN 24)    
1 21552U 91047A   09142.86551335  .00000040  00000-0  10000-3 0  2876
2 21552  54.4723 222.0209 0068688 321.6114  37.9718  2.00562820130984
GPS BIIA-12 (PRN 25)    
1 21890U 92009A   09142.86948707 -.00000062  00000-0  10000-3 0  2845
2 21890  55.5554  33.7293 0117113 290.6652  68.1257  2.00566266126362
GPS BIIA-14 (PRN 26)    
1 22014U 92039A   09142.52694414 -.00000055  00000-0  10000-3 0  1417
2 22014  56.8867 342.2974 0201709  57.3617 304.6083  2.00423605117128
GPS BIIA-15 (PRN 27)    
1 22108U 92058A   09143.55612417 -.00000059  00000-0  10000-3 0   906
2 22108  55.8219  35.7872 0215289 268.7434  88.7818  2.00550136122320
GPS BIIA-21 (PRN 09)    
1 22700U 93042A   09142.59222288 -.00000061  00000-0  10000-3 0  4530
2 22700  55.9344  37.2051 0202828  84.6352 277.7078  2.00568289116467
GPS BIIA-23 (PRN 04)    
1 22877U 93068A   09143.22559127  .00000046  00000-0  10000-3 0  7602
2 22877  53.8892 219.4166 0084872  26.6107 333.8966  2.00555610114124
GPS BIIA-24 (PRN 06)    
1 23027U 94016A   09142.93198651  .00000106  00000-0  10000-3 0  7788
2 23027  53.5040 156.4889 0061960 281.5563  77.7989  2.00559526111426
GPS BIIA-25 (PRN 03)    
1 23833U 96019A   09141.45433460  .00000112  00000-0  10000-3 0  9682
2 23833  53.0758 152.6792 0116814  51.1413 309.9531  2.00554106 96375
GPS BIIA-26 (PRN 10)    
1 23953U 96041A   09143.36884501 -.00000041  00000-0  10000-3 0  4191
2 23953  54.9142 280.4884 0084925  34.8864 325.6423  2.00572795 94201
GPS BIIA-27 (PRN 30)    
1 24320U 96056A   09142.72177368  .00000018  00000-0  10000-3 0  1573
2 24320  54.5477  96.6949 0111268  81.2154 280.0095  2.00571908 92858
GPS BIIR-02 (PRN 13)    
1 24876U 97035A   09142.81864372 -.00000055  00000-0  10000-3 0  9328
2 24876  57.0049 342.4227 0038855  89.7351 270.7627  2.00560251 86725
GPS BIIA-28 (PRN 08)    
1 25030U 97067A   09142.94866792 -.00000056  00000-0  10000-3 0  8384
2 25030  56.6405  42.5931 0104611 173.0268 187.1497  2.00566166 84621
GPS BIIR-03 (PRN 11)    
1 25933U 99055A   09143.08802769  .00000063  00000-0  10000-3 0  3994
2 25933  50.9646 206.9164 0091795  39.2727 321.4770  2.00561633 70549
GPS BIIR-04 (PRN 20)    
1 26360U 00025A   09142.19130924 -.00000043  00000-0  10000-3 0  4930
2 26360  53.9864 277.7663 0037470  77.3305 283.0715  2.00570702 66223
GPS BIIR-05 (PRN 28)    
1 26407U 00040A   09143.02912894  .00000026  00000-0  10000-3 0  4396
2 26407  55.3852 100.8542 0151248 244.5401 113.8558  2.00566891 64918
GPS BIIR-06 (PRN 14)    
1 26605U 00071A   09142.62764108 -.00000056  00000-0  10000-3 0  4437
2 26605  56.6357 341.3136 0045882 239.1597 120.4201  2.00572670 62509
GPS BIIR-07 (PRN 18)    
1 26690U 01004A   09142.99987475 -.00000043  00000-0  10000-3 0  3314
2 26690  54.0004 280.8182 0104545 222.2407 136.9285  2.00572596 60922
GPS BIIR-08 (PRN 16)    
1 27663U 03005A   09142.85134512  .00000026  00000-0  10000-3 0  6974
2 27663  55.4888 100.3925 0054258 337.1423  22.5807  2.00579011 46279
GPS BIIR-09 (PRN 21)    
1 27704U 03010A   09142.41338952  .00000039  00000-0  10000-3 0  5919
2 27704  53.5183 220.2038 0152708 211.5748 147.5703  2.00569437 45052
GPS BIIR-10 (PRN 22)    
1 28129U 03058A   09142.54092258 -.00000045  00000-0  10000-3 0  2109
2 28129  53.8658 281.1626 0051509 253.9592 105.4516  2.00564972 39762
GPS BIIR-11 (PRN 19)    
1 28190U 04009A   09142.98848721  .00000110  00000-0  10000-3 0  1499
2 28190  54.8593 163.3155 0056287 337.2880  22.5272  2.00572169 37944
GPS BIIR-12 (PRN 23)    
1 28361U 04023A   09142.77455923 -.00000058  00000-0  10000-3 0  9760
2 28361  55.6016 339.4499 0059961 167.2919 192.8918  2.00570794 36024
GPS BIIR-13 (PRN 02)    
1 28474U 04045A   09142.76938542  .00000046  00000-0  10000-3 0  8520
2 28474  53.9358 218.3802 0090090 162.2603 198.1269  2.00565854 33380
GPS BIIRM-1 (PRN 17)    
1 28874U 05038A   09143.12073052  .00000109  00000-0  10000-3 0  1101
2 28874  54.9914 160.0977 0045772 210.5738 149.2142  2.00563117 26819
GPS BIIRM-2 (PRN 31)    
1 29486U 06042A   09142.73277908 -.00000060  00000-0  10000-3 0  4570
2 29486  55.7361  39.0266 0072972 294.3707  64.9018  2.00560348 19504
GPS BIIRM-3 (PRN 12)    
1 29601U 06052A   09142.18412538  .00000029  00000-0  10000-3 0  4786
2 29601  55.4033  99.4481 0034948 316.1750  43.5165  2.00564645 18405
GPS BIIRM-4 (PRN 15)    
1 32260U 07047A   09142.48038616 -.00000059  00000-0  00000-0 0  2531
2 32260  54.8047 338.3233 0015593 325.6014  34.3256  2.00571003 11803
GPS BIIRM-5 (PRN 29)    
1 32384U 07062A   09142.31183009  .00000115  00000-0  10000-3 0  2765
2 32384  55.0021 160.5988 0036540 283.9691  75.6889  2.00561724 10526
GPS BIIRM-6 (PRN 07)    
1 32711U 08012A   09141.90265125 -.00000062  00000-0  10000-3 0  1669
2 32711  55.4257  39.1819 0024548 170.7774 189.2970  2.00564005  8726
GPS BIIRM-7 (PRN 01)    
1 34661U 09014A   09142.22121444  .00000026  00000-0  10000-3 0   544
2 34661  55.0524  98.7556 0031708  49.2806 310.9624  2.00553024  1244
